[{"OBJECT_NAME":"STARLINK-1666","OBJECT_ID":"2020-062AJ","EPOCH":"2026-03-10T00:00:02.999808","MEAN_MOTION":15.58154257,"ECCENTRICITY":0.00060115,"INCLINATION":53.0479,"RA_OF_ASC_NODE":332.8537,"ARG_OF_PERICENTER":131.9659,"MEAN_ANOMALY":204.3284,"EPHEMERIS_TYPE":0,"CLASSIFICATION_TYPE":"U","NORAD_CAT_ID":46357,"ELEMENT_SET_NO":999,"REV_AT_EPOCH":557,"BSTAR":0.0017911764,"MEAN_MOTION_DOT":0.00139472,"MEAN_MOTION_DDOT":0},{"OBJECT_NAME":"STARLINK-36637","OBJECT_ID":"2026-020S","EPOCH":"2026-03-09T22:00:01.999584","MEAN_MOTION":15.72621627,"ECCENTRICITY":0.00016113,"INCLINATION":42.9995,"RA_OF_ASC_NODE":140.734,"ARG_OF_PERICENTER":269.0754,"MEAN_ANOMALY":54.974,"EPHEMERIS_TYPE":0,"CLASSIFICATION_TYPE":"U","NORAD_CAT_ID":67633,"ELEMENT_SET_NO":999,"REV_AT_EPOCH":603,"BSTAR":-0.016093623,"MEAN_MOTION_DOT":-0.0196988,"MEAN_MOTION_DDOT":0}]
